STARLINK-2684
1 48471U 21040AV  26061.16668981  .01387989  00000+0  71774-1 0  9992
2 48471  53.0812 225.3118 0001865  89.3263  63.4310 15.12758114  5825
STARLINK-2536
1 48310U 21036AL  26061.16668981  .00104285  00000+0  58452-2 0  9993
2 48310  53.0767 125.3378 0001685 119.8764 109.5789 15.12544967  5829
STARLINK-2440
1 48105U 21027P   26061.16668981  .01548500  00000+0  80919-1 0  9990
2 48105  53.0794 135.3230 0000507 136.4491 206.2498 15.12538789  5820
STARLINK-2498
1 48326U 21036BC  26061.16668981  .00108282  00000+0  60947-2 0  9993
2 48326  53.0748 135.3356 0001742 105.4923 110.1010 15.12370263  5825
STARLINK-2642
1 48437U 21040K   26061.16668981  .01492642  00000+0  77495-1 0  9993
2 48437  53.0792 225.3251 0000705 134.6244 190.7013 15.12370018  5813
STARLINK-2659
1 48467U 21040AR  26061.16668981  .01394011  00000+0  73282-1 0  9997
2 48467  53.0777 225.3247 0001653  74.3212 351.0287 15.12149973  5675
STARLINK-2697
1 48474U 21040AY  26061.16668981  .01426286  00000+0  74990-1 0  9992
2 48474  53.0777 225.3286 0001902  98.9154 123.8954 15.12071436  5821
STARLINK-2658
1 48473U 21040AX  26061.16668981  .01451307  00000+0  76207-1 0  9996
2 48473  53.0778 225.3298 0000848  70.2352 332.4009 15.12056368  5821
STARLINK-2273
1 47993U 21024S   26061.16668981  .00090421  00000+0  51534-2 0  9996
2 47993  53.0751 330.3153 0001143  80.3456 335.1992 15.12031047  5672
STARLINK-2569
1 48277U 21036B   26061.16668981  .01441094  00000+0  75807-1 0  9990
2 48277  53.0779  45.3324 0000857  86.4756 245.6049 15.12014433  5760
STARLINK-2504
1 48328U 21036BE  26061.16668981  .01527940  00000+0  81443-1 0  9995
2 48328  53.0760 135.3367 0001468 117.8667 136.9886 15.11866691  5821
STARLINK-2512
1 48319U 21036AV  26061.16668981  .01536136  00000+0  81978-1 0  9995
2 48319  53.0762 135.3285 0001546  57.1032  22.2466 15.11807735  5770
STARLINK-2457
1 48321U 21036AX  26061.16668981  .01536921  00000+0  82048-1 0  9999
2 48321  53.0762 135.3419 0001777  72.4172  41.6510 15.11794524  5779
STARLINK-2515
1 48323U 21036AZ  26061.16668981  .01534534  00000+0  82043-1 0  9994
2 48323  53.0761 135.3390 0001962  87.6035  65.9355 15.11745799  5675
STARLINK-2661
1 48469U 21040AT  26061.16668981  .01481893  00000+0  78731-1 0  9998
2 48469  53.0756 225.3408 0001285  61.5648  15.4709 15.11563070  5773
STARLINK-2687
1 48466U 21040AQ  26061.16668981  .01303040  00000+0  70093-1 0  9995
2 48466  53.0761 225.3366 0002086  93.1733 105.5823 15.11527965  5822
